{"type": "FeatureCollection", "features": [ {"type": "Feature", "properties": {"norad_id": 39122, "name": "EUTELSAT 117 WEST A", "group": "eutelsat", "lat": 0.027640932169775662, "lon": 111.81234770986524, "alt_km": 35797.153907127904, "timestamp": "2025-12-12T09:49:08.399287+00:00", "meta": {"OBJECT_NAME": "EUTELSAT 117 WEST A", "OBJECT_ID": "2013-012A", "EPOCH": "2025-12-12T03:46:38.737056", "MEAN_MOTION": 1.00271534, "ECCENTRICITY": 0.0002944, "INCLINATION": 0.015, "RA_OF_ASC_NODE": 10.4942, "ARG_OF_PERICENTER": 253.4678, "MEAN_ANOMALY": 117.0003, "EPHEMERIS_TYPE": 0, "CLASSIFICATION_TYPE": "U", "NORAD_CAT_ID": 39122, "ELEMENT_SET_NO": 999, "REV_AT_EPOCH": 4655, "BSTAR": 0, "MEAN_MOTION_DOT": -3e-08, "MEAN_MOTION_DDOT": 0}, "tle": {"line1": "1 39122U 13012A   25346.15739279 -.00000003  00000+0  00000+0 0  9999", "line2": "2 39122   0.0150  10.4942 0002944 253.4678 117.0003  1.00271534 46554"}}, "geometry": {"type": "Point", "coordinates": [111.81234770986524, 0.027640932169775662]}}, {"type": "Feature", "properties": {"norad_id": 39163, "name": "EUTELSAT 7B", "group": "eutelsat", "lat": -0.059028854848212235, "lon": -124.42201368555166, "alt_km": 35782.891700081425, "timestamp": "2025-12-12T09:49:08.399300+00:00", "meta": {"OBJECT_NAME": "EUTELSAT 7B", "OBJECT_ID": "2013-022A", "EPOCH": "2025-12-12T03:14:30.886080", "MEAN_MOTION": 1.00272809, "ECCENTRICITY": 0.0004625, "INCLINATION": 0.0731, "RA_OF_ASC_NODE": 20.1699, "ARG_OF_PERICENTER": 297.0742, "MEAN_ANOMALY": 179.4643, "EPHEMERIS_TYPE": 0, "CLASSIFICATION_TYPE": "U", "NORAD_CAT_ID": 39163, "ELEMENT_SET_NO": 999, "REV_AT_EPOCH": 4608, "BSTAR": 0, "MEAN_MOTION_DOT": 5.7e-07, "MEAN_MOTION_DDOT": 0}, "tle": {"line1": "1 39163U 13022A   25346.13507970  .00000057  00000+0  00000+0 0  9992", "line2": "2 39163   0.0731  20.1699 0004625 297.0742 179.4643  1.00272809 46081"}}, "geometry": {"type": "Point", "coordinates": [-124.42201368555166, -0.059028854848212235]}}, {"type": "Feature", "properties": {"norad_id": 39612, "name": "EXPRESS-AT1", "group": "eutelsat", "lat": -0.023036895178817508, "lon": -75.37620183832918, "alt_km": 35786.203178326614, "timestamp": "2025-12-12T09:49:08.399312+00:00", "meta": {"OBJECT_NAME": "EXPRESS-AT1", "OBJECT_ID": "2014-010A", "EPOCH": "2025-12-12T03:28:29.548416", "MEAN_MOTION": 1.00270061, "ECCENTRICITY": 1.66e-05, "INCLINATION": 0.0172, "RA_OF_ASC_NODE": 320.8716, "ARG_OF_PERICENTER": 262.8726, "MEAN_ANOMALY": 325.4628, "EPHEMERIS_TYPE": 0, "CLASSIFICATION_TYPE": "U", "NORAD_CAT_ID": 39612, "ELEMENT_SET_NO": 999, "REV_AT_EPOCH": 4294, "BSTAR": 0, "MEAN_MOTION_DOT": 0, "MEAN_MOTION_DDOT": 0}, "tle": {"line1": "1 39612U 14010A   25346.14478644  .00000000  00000+0  00000+0 0  9993", "line2": "2 39612   0.0172 320.8716 0000166 262.8726 325.4628  1.00270061 42942"}}, "geometry": {"type": "Point", "coordinates": [-75.37620183832918, -0.023036895178817508]}}, {"type": "Feature", "properties": {"norad_id": 39613, "name": "EXPRESS-AT2", "group": "eutelsat", "lat": 0.025764953424250815, "lon": 8.513918603982969, "alt_km": 35783.68174467817, "timestamp": "2025-12-12T09:49:08.399324+00:00", "meta": {"OBJECT_NAME": "EXPRESS-AT2", "OBJECT_ID": "2014-010B", "EPOCH": "2025-12-12T05:35:04.028928", "MEAN_MOTION": 1.002723, "ECCENTRICITY": 0.0001465, "INCLINATION": 0.0164, "RA_OF_ASC_NODE": 303.1942, "ARG_OF_PERICENTER": 357.1365, "MEAN_ANOMALY": 4.4809, "EPHEMERIS_TYPE": 0, "CLASSIFICATION_TYPE": "U", "NORAD_CAT_ID": 39613, "ELEMENT_SET_NO": 999, "REV_AT_EPOCH": 4262, "BSTAR": 0, "MEAN_MOTION_DOT": -2.71e-06, "MEAN_MOTION_DDOT": 0}, "tle": {"line1": "1 39613U 14010B   25346.23268552 -.00000271  00000+0  00000+0 0  9990", "line2": "2 39613   0.0164 303.1942 0001465 357.1365   4.4809  1.00272300 42627"}}, "geometry": {"type": "Point", "coordinates": [8.513918603982969, 0.025764953424250815]}}, {"type": "Feature", "properties": {"norad_id": 39773, "name": "EUTELSAT 3B", "group": "eutelsat", "lat": -0.07286820949709018, "lon": -128.2652229106986, "alt_km": 35767.01444673101, "timestamp": "2025-12-12T09:49:08.399336+00:00", "meta": {"OBJECT_NAME": "EUTELSAT 3B", "OBJECT_ID": "2014-030A", "EPOCH": "2025-12-12T03:13:23.493216", "MEAN_MOTION": 1.00270499, "ECCENTRICITY": 0.0004597, "INCLINATION": 0.0614, "RA_OF_ASC_NODE": 347.8073, "ARG_OF_PERICENTER": 242.4386, "MEAN_ANOMALY": 262.2867, "EPHEMERIS_TYPE": 0, "CLASSIFICATION_TYPE": "U", "NORAD_CAT_ID": 39773, "ELEMENT_SET_NO": 999, "REV_AT_EPOCH": 4219, "BSTAR": 0, "MEAN_MOTION_DOT": 2.9e-07, "MEAN_MOTION_DDOT": 0}, "tle": {"line1": "1 39773U 14030A   25346.13429969  .00000029  00000+0  00000+0 0  9999", "line2": "2 39773   0.0614 347.8073 0004597 242.4386 262.2867  1.00270499 42199"}}, "geometry": {"type": "Point", "coordinates": [-128.2652229106986, -0.07286820949709018]}}, {"type": "Feature", "properties": {"norad_id": 40425, "name": "EUTELSAT 115 WEST B", "group": "eutelsat", "lat": -0.02108658915652122, "lon": 113.73886565671022, "alt_km": 35785.12473034539, "timestamp": "2025-12-12T09:49:08.399348+00:00", "meta": {"OBJECT_NAME": "EUTELSAT 115 WEST B", "OBJECT_ID": "2015-010B", "EPOCH": "2025-12-12T00:56:56.376096", "MEAN_MOTION": 1.00272865, "ECCENTRICITY": 1.78e-05, "INCLINATION": 0.0399, "RA_OF_ASC_NODE": 160.4365, "ARG_OF_PERICENTER": 343.6071, "MEAN_ANOMALY": 196.286, "EPHEMERIS_TYPE": 0, "CLASSIFICATION_TYPE": "U", "NORAD_CAT_ID": 40425, "ELEMENT_SET_NO": 999, "REV_AT_EPOCH": 3951, "BSTAR": 0, "MEAN_MOTION_DOT": -1.6e-07, "MEAN_MOTION_DDOT": 0}, "tle": {"line1": "1 40425U 15010B   25346.03954139 -.00000016  00000+0  00000+0 0  9992", "line2": "2 40425   0.0399 160.4365 0000178 343.6071 196.2860  1.00272865 39514"}}, "geometry": {"type": "Point", "coordinates": [113.73886565671022, -0.02108658915652122]}}, {"type": "Feature", "properties": {"norad_id": 40875, "name": "EUTELSAT 8 WEST B", "group": "eutelsat", "lat": -0.05198442639754431, "lon": -139.38156927229122, "alt_km": 35772.767963663515, "timestamp": "2025-12-12T09:49:08.399360+00:00", "meta": {"OBJECT_NAME": "EUTELSAT 8 WEST B", "OBJECT_ID": "2015-039B", "EPOCH": "2025-12-12T03:10:08.802912", "MEAN_MOTION": 1.00271632, "ECCENTRICITY": 0.0004205, "INCLINATION": 0.0653, "RA_OF_ASC_NODE": 6.6681, "ARG_OF_PERICENTER": 255.3415, "MEAN_ANOMALY": 218.6251, "EPHEMERIS_TYPE": 0, "CLASSIFICATION_TYPE": "U", "NORAD_CAT_ID": 40875, "ELEMENT_SET_NO": 999, "REV_AT_EPOCH": 3778, "BSTAR": 0, "MEAN_MOTION_DOT": -5.6e-07, "MEAN_MOTION_DDOT": 0}, "tle": {"line1": "1 40875U 15039B   25346.13204633 -.00000056  00000+0  00000+0 0  9994", "line2": "2 40875   0.0653   6.6681 0004205 255.3415 218.6251  1.00271632 37785"}}, "geometry": {"type": "Point", "coordinates": [-139.38156927229122, -0.05198442639754431]}}, {"type": "Feature", "properties": {"norad_id": 41310, "name": "EUTELSAT 9B", "group": "eutelsat", "lat": -0.013404350233940023, "lon": -122.38805493774144, "alt_km": 35769.81901526661, "timestamp": "2025-12-12T09:49:08.399372+00:00", "meta": {"OBJECT_NAME": "EUTELSAT 9B", "OBJECT_ID": "2016-005A", "EPOCH": "2025-12-11T22:06:55.623168", "MEAN_MOTION": 1.00269719, "ECCENTRICITY": 0.0004684, "INCLINATION": 0.0432, "RA_OF_ASC_NODE": 62.511, "ARG_OF_PERICENTER": 207.2212, "MEAN_ANOMALY": 151.8834, "EPHEMERIS_TYPE": 0, "CLASSIFICATION_TYPE": "U", "NORAD_CAT_ID": 41310, "ELEMENT_SET_NO": 999, "REV_AT_EPOCH": 3623, "BSTAR": 0, "MEAN_MOTION_DOT": 7e-07, "MEAN_MOTION_DDOT": 0}, "tle": {"line1": "1 41310U 16005A   25345.92147712  .00000070  00000+0  00000+0 0  9998", "line2": "2 41310   0.0432  62.5110 0004684 207.2212 151.8834  1.00269719 36232"}}, "geometry": {"type": "Point", "coordinates": [-122.38805493774144, -0.013404350233940023]}}, {"type": "Feature", "properties": {"norad_id": 41382, "name": "EUTELSAT 65 WEST A", "group": "eutelsat", "lat": 0.02439943585704052, "lon": 163.40858482578437, "alt_km": 35788.78866438107, "timestamp": "2025-12-12T09:49:08.399384+00:00", "meta": {"OBJECT_NAME": "EUTELSAT 65 WEST A", "OBJECT_ID": "2016-014A", "EPOCH": "2025-12-12T02:53:55.355712", "MEAN_MOTION": 1.002721, "ECCENTRICITY": 0.0002529, "INCLINATION": 0.0516, "RA_OF_ASC_NODE": 12.9642, "ARG_OF_PERICENTER": 255.5076, "MEAN_ANOMALY": 150.8816, "EPHEMERIS_TYPE": 0, "CLASSIFICATION_TYPE": "U", "NORAD_CAT_ID": 41382, "ELEMENT_SET_NO": 999, "REV_AT_EPOCH": 3565, "BSTAR": 0, "MEAN_MOTION_DOT": -2.67e-06, "MEAN_MOTION_DDOT": 0}, "tle": {"line1": "1 41382U 16014A   25346.12077958 -.00000267  00000+0  00000+0 0  9993", "line2": "2 41382   0.0516  12.9642 0002529 255.5076 150.8816  1.00272100 35655"}}, "geometry": {"type": "Point", "coordinates": [163.40858482578437, 0.02439943585704052]}}, {"type": "Feature", "properties": {"norad_id": 41589, "name": "EUTELSAT 117 WEST B", "group": "eutelsat", "lat": -0.006607906033275716, "lon": 111.67208921339767, "alt_km": 35783.90944581858, "timestamp": "2025-12-12T09:49:08.399396+00:00", "meta": {"OBJECT_NAME": "EUTELSAT 117 WEST B", "OBJECT_ID": "2016-038B", "EPOCH": "2025-12-11T23:13:36.273216", "MEAN_MOTION": 1.00275784, "ECCENTRICITY": 5.99e-05, "INCLINATION": 0.0087, "RA_OF_ASC_NODE": 154.6922, "ARG_OF_PERICENTER": 250.9411, "MEAN_ANOMALY": 266.7128, "EPHEMERIS_TYPE": 0, "CLASSIFICATION_TYPE": "U", "NORAD_CAT_ID": 41589, "ELEMENT_SET_NO": 999, "REV_AT_EPOCH": 3478, "BSTAR": 0, "MEAN_MOTION_DOT": -4e-08, "MEAN_MOTION_DDOT": 0}, "tle": {"line1": "1 41589U 16038B   25345.96778094 -.00000004  00000+0  00000+0 0  9997", "line2": "2 41589   0.0087 154.6922 0000599 250.9411 266.7128  1.00275784 34786"}}, "geometry": {"type": "Point", "coordinates": [111.67208921339767, -0.006607906033275716]}}]}